*******************************************************************************
 Revised: Jan 15, 2010                 Mars                             499 / 4
 
 GEOPHYSICAL DATA (updated 2009-May-26):
  Mean radius (km)      = 3389.9(2+-4)    Density (g cm^-3)     =  3.933(5+-4)
  Mass (10^23 kg )      =    6.4185       Flattening, f         =  1/154.409
  Volume (x10^10 km^3)  =   16.318        Semi-major axis       =  3397+-4
  Sidereal rot. period  =   24.622962 hr  Rot. Rate (x10^5 s)   =  7.088218
  Mean solar day        =    1.0274907 d  Polar gravity ms^-2   =  3.758
  Mom. of Inertia       =    0.366        Equ. gravity  ms^-2   =  3.71
  Core radius (km)      =  ~1700          Potential Love # k2   =  0.153 +-.017
 
  Grav spectral fact u  =   14 (x10^5)    Topo. spectral fact t = 96 (x10^5)
  Fig. offset (Rcf-Rcm) = 2.50+-0.07 km   Offset (lat./long.)   = 62d / 88d
  GM (km^3 s^-2)        = 42828.3         Equatorial Radius, Re = 3394.0 km 
  GM 1-sigma (km^3 s^-2)= +- 0.1          Mass ratio (Sun/Mars) = 3098708+-9
  
  Atmos. pressure (bar) =    0.0056       Max. angular diam.    =  17.9"
  Mean Temperature (K)  =  210            Visual mag. V(1,0)    =  -1.52
  Geometric albedo      =    0.150        Obliquity to orbit    =  25.19 deg
  Mean sidereal orb per =    1.88081578 y Orbit vel.  km/s      =  24.1309
  Mean sidereal orb per =  686.98 d       Escape vel. km/s      =   5.027
  Hill's sphere rad. Rp =  319.8          Mag. mom (gauss Rp^3) = < 1x10^-4 
*******************************************************************************
 
 
*******************************************************************************
Ephemeris / WWW_USER Sat May  7 04:43:52 2011  Pasadena, USA     / Horizons    
*******************************************************************************
Target body name: Mars (499)                      {source: MAR085}
Center body name: Earth (399)                     {source: DE405}
Center-site name: GEOCENTRIC
*******************************************************************************
Start time      : A.D. 2011-Apr-18 00:00:00.0000 UT      
Stop  time      : A.D. 2020-May-18 00:00:00.0000 UT      
Step-size       : 1440 minutes
*******************************************************************************
Target pole/equ : IAU_MARS                        {East-longitude -}
Target radii    : 3396.2 x 3396.2 x 3376.2 km     {Equator, meridian, pole}    
Center geodetic : 0.00000000,0.00000000,0.0000000 {E-lon(deg),Lat(deg),Alt(km)}
Center cylindric: 0.00000000,0.00000000,0.0000000 {E-lon(deg),Dxy(km),Dz(km)}
Center pole/equ : High-precision EOP model        {East-longitude +}
Center radii    : 6378.1 x 6378.1 x 6356.8 km     {Equator, meridian, pole}    
Target primary  : Sun                             {source: DE405+DE406}
Interfering body: MOON (Req= 1737.400) km         {source: DE405}
Deflecting body : Sun, EARTH                      {source: DE405}
Deflecting GMs  : 1.3271E+11, 3.9860E+05 km^3/s^2                              
Atmos refraction: NO (AIRLESS)
RA format       : HMS
Time format     : CAL 
EOP file        : eop.110506.p110728                                           
EOP coverage    : DATA-BASED 1962-JAN-20 TO 2011-MAY-06. PREDICTS-> 2011-JUL-27
Units conversion: 1 AU= 149597870.691 km, c= 299792.458 km/s, 1 day= 86400.0 s 
Table cut-offs 1: Elevation (-90.0deg=NO ),Airmass (>38.000=NO), Daylight (NO )
Table cut-offs 2: Solar Elongation (  0.0,180.0=NO )                           
*************************************************************************************************
 Date__(UT)__HR:MN     R.A._(ICRF/J2000.0)_DEC R.A.__(a-apparent)__DEC  APmag  S-brt   Illu% Cnst
*************************************************************************************************
$$SOE
 2011-Apr-18 00:00     00 45 45.81 +04 01 05.8 00 46 20.51 +04 04 46.1   1.22   3.95  99.074  Psc
 2011-Apr-19 00:00     00 48 35.74 +04 19 29.5 00 49 10.48 +04 23 09.3   1.22   3.96  99.050  Psc
 2011-Apr-20 00:00     00 51 25.67 +04 37 49.8 00 52 00.46 +04 41 29.1   1.22   3.96  99.025  Psc
 2011-Apr-21 00:00     00 54 15.62 +04 56 06.5 00 54 50.45 +04 59 45.2   1.22   3.97  99.000  Psc
 2011-Apr-22 00:00     00 57 05.58 +05 14 19.5 00 57 40.47 +05 17 57.6   1.23   3.97  98.975  Psc
 2011-Apr-23 00:00     00 59 55.57 +05 32 28.5 01 00 30.51 +05 36 06.0   1.23   3.97  98.949  Psc
 2011-Apr-24 00:00     01 02 45.59 +05 50 33.3 01 03 20.58 +05 54 10.2   1.23   3.98  98.923  Psc
 2011-Apr-25 00:00     01 05 35.65 +06 08 33.9 01 06 10.69 +06 12 10.1   1.23   3.98  98.897  Psc
 2011-Apr-26 00:00     01 08 25.75 +06 26 30.0 01 09 00.85 +06 30 05.4   1.24   3.98  98.871  Psc
 2011-Apr-27 00:00     01 11 15.91 +06 44 21.5 01 11 51.06 +06 47 56.1   1.24   3.99  98.844  Psc
 2011-Apr-28 00:00     01 14 06.13 +07 02 08.2 01 14 41.32 +07 05 41.9   1.24   3.99  98.817  Psc
 2011-Apr-29 00:00     01 16 56.41 +07 19 49.9 01 17 31.65 +07 23 22.7   1.24   3.99  98.790  Psc
 2011-Apr-30 00:00     01 19 46.75 +07 37 26.4 01 20 22.05 +07 40 58.3   1.25   3.99  98.762  Psc
 2011-May-01 00:00     01 22 37.17 +07 54 57.6 01 23 12.53 +07 58 28.6   1.25   4.00  98.734  Psc
 2011-May-02 00:00     01 25 27.67 +08 12 23.4 01 26 03.08 +08 15 53.3   1.25   4.00  98.706  Psc
 2011-May-03 00:00     01 28 18.24 +08 29 43.4 01 28 53.72 +08 33 12.3   1.25   4.00  98.677  Psc
 2011-May-04 00:00     01 31 08.91 +08 46 57.6 01 31 44.45 +08 50 25.5   1.26   4.00  98.649  Psc
 2011-May-05 00:00     01 33 59.66 +09 04 05.9 01 34 35.28 +09 07 32.7   1.26   4.01  98.620  Psc
 2011-May-06 00:00     01 36 50.51 +09 21 07.9 01 37 26.20 +09 24 33.7   1.26   4.01  98.590  Psc
 2011-May-07 00:00     01 39 41.45 +09 38 03.7 01 40 17.22 +09 41 28.3   1.26   4.01  98.561  Psc
 2011-May-08 00:00     01 42 32.49 +09 54 53.0 01 43 08.34 +09 58 16.5   1.27   4.02  98.531  Psc
 2011-May-09 00:00     01 45 23.64 +10 11 35.6 01 45 59.57 +10 14 58.0   1.27   4.02  98.501  Psc
 2011-May-10 00:00     01 48 14.90 +10 28 11.5 01 48 50.90 +10 31 32.6   1.27   4.03  98.470  Psc
 2011-May-11 00:00     01 51 06.27 +10 44 40.4 01 51 42.35 +10 48 00.3   1.27   4.03  98.440  Ari
 2011-May-12 00:00     01 53 57.76 +11 01 02.3 01 54 33.92 +11 04 20.9   1.28   4.03  98.409  Ari
 2011-May-13 00:00     01 56 49.38 +11 17 17.0 01 57 25.60 +11 20 34.2   1.28   4.04  98.378  Ari
 2011-May-14 00:00     01 59 41.12 +11 33 24.3 02 00 17.42 +11 36 40.1   1.28   4.04  98.346  Ari
 2011-May-15 00:00     02 02 32.99 +11 49 24.1 02 03 09.37 +11 52 38.5   1.28   4.04  98.314  Ari
 2011-May-16 00:00     02 05 25.00 +12 05 16.3 02 06 01.47 +12 08 29.2   1.29   4.05  98.282  Ari
 2011-May-17 00:00     02 08 17.16 +12 21 00.7 02 08 53.71 +12 24 12.2   1.29   4.05  98.250  Ari
 2011-May-18 00:00     02 11 09.47 +12 36 37.3 02 11 46.12 +12 39 47.3   1.29   4.05  98.217  Ari
 2011-May-19 00:00     02 14 01.94 +12 52 05.8 02 14 38.68 +12 55 14.3   1.29   4.05  98.185  Ari
 2011-May-20 00:00     02 16 54.57 +13 07 26.2 02 17 31.40 +13 10 33.2   1.30   4.06  98.151  Ari
 2011-May-21 00:00     02 19 47.36 +13 22 38.3 02 20 24.29 +13 25 43.7   1.30   4.06  98.118  Ari
 2011-May-22 00:00     02 22 40.32 +13 37 42.0 02 23 17.34 +13 40 45.8   1.30   4.06  98.084  Ari
 2011-May-23 00:00     02 25 33.45 +13 52 37.1 02 26 10.56 +13 55 39.3   1.30   4.06  98.050  Ari
 2011-May-24 00:00     02 28 26.75 +14 07 23.5 02 29 03.95 +14 10 24.1   1.30   4.07  98.016  Ari
 2011-May-25 00:00     02 31 20.22 +14 22 01.1 02 31 57.52 +14 24 59.9   1.31   4.07  97.981  Ari
 2011-May-26 00:00     02 34 13.87 +14 36 29.7 02 34 51.26 +14 39 26.7   1.31   4.08  97.947  Ari
 2011-May-27 00:00     02 37 07.70 +14 50 49.1 02 37 45.17 +14 53 44.4   1.31   4.08  97.911  Ari
 2011-May-28 00:00     02 40 01.70 +15 04 59.4 02 40 39.26 +15 07 52.8   1.31   4.08  97.876  Ari
 2011-May-29 00:00     02 42 55.88 +15 19 00.3 02 43 33.53 +15 21 51.8   1.32   4.09  97.840  Ari
 2011-May-30 00:00     02 45 50.23 +15 32 51.7 02 46 27.98 +15 35 41.3   1.32   4.09  97.804  Ari
 2011-May-31 00:00     02 48 44.76 +15 46 33.4 02 49 22.60 +15 49 21.1   1.32   4.10  97.768  Ari
 2011-Jun-01 00:00     02 51 39.45 +16 00 05.4 02 52 17.40 +16 02 51.2   1.32   4.10  97.732  Ari
 2011-Jun-02 00:00     02 54 34.32 +16 13 27.5 02 55 12.37 +16 16 11.4   1.33   4.10  97.695  Ari
 2011-Jun-03 00:00     02 57 29.35 +16 26 39.7 02 58 07.51 +16 29 21.6   1.33   4.11  97.658  Ari
 2011-Jun-04 00:00     03 00 24.56 +16 39 41.7 03 01 02.82 +16 42 21.6   1.33   4.11  97.621  Ari
 2011-Jun-05 00:00     03 03 19.92 +16 52 33.5 03 03 58.28 +16 55 11.4   1.33   4.11  97.583  Ari
 2011-Jun-06 00:00     03 06 15.45 +17 05 15.0 03 06 53.91 +17 07 50.8   1.34   4.11  97.545  Ari
 2011-Jun-07 00:00     03 09 11.13 +17 17 46.0 03 09 49.70 +17 20 19.8   1.34   4.12  97.507  Ari
 2011-Jun-08 00:00     03 12 06.97 +17 30 06.5 03 12 45.64 +17 32 38.1   1.34   4.12  97.469  Ari
 2011-Jun-09 00:00     03 15 02.97 +17 42 16.3 03 15 41.73 +17 44 45.8   1.34   4.12  97.430  Ari
 2011-Jun-10 00:00     03 17 59.12 +17 54 15.4 03 18 37.97 +17 56 42.7   1.34   4.13  97.391  Ari
 2011-Jun-11 00:00     03 20 55.43 +18 06 03.6 03 21 34.37 +18 08 28.6   1.35   4.13  97.352  Ari
 2011-Jun-12 00:00     03 23 51.88 +18 17 40.9 03 24 30.92 +18 20 03.7   1.35   4.13  97.313  Ari
 2011-Jun-13 00:00     03 26 48.49 +18 29 07.2 03 27 27.63 +18 31 27.6   1.35   4.14  97.273  Tau
 2011-Jun-14 00:00     03 29 45.24 +18 40 22.4 03 30 24.49 +18 42 40.5   1.35   4.14  97.233  Tau
 2011-Jun-15 00:00     03 32 42.15 +18 51 26.4 03 33 21.50 +18 53 42.2   1.35   4.15  97.193  Tau
 2011-Jun-16 00:00     03 35 39.20 +19 02 19.1 03 36 18.66 +19 04 32.5   1.36   4.15  97.153  Tau
 2011-Jun-17 00:00     03 38 36.40 +19 13 00.4 03 39 15.97 +19 15 11.6   1.36   4.16  97.112  Tau
